[{"OBJECT_NAME":"STARLINK-34575","OBJECT_ID":"2025-152T","EPOCH":"2026-03-09T13:29:55.972032","MEAN_MOTION":15.0564932,"ECCENTRICITY":0.00016547,"INCLINATION":97.6011,"RA_OF_ASC_NODE":285.4649,"ARG_OF_PERICENTER":72.1858,"MEAN_ANOMALY":287.9549,"EPHEMERIS_TYPE":0,"CLASSIFICATION_TYPE":"U","NORAD_CAT_ID":64859,"ELEMENT_SET_NO":999,"REV_AT_EPOCH":3540,"BSTAR":0.00016704605,"MEAN_MOTION_DOT":2.35e-5,"MEAN_MOTION_DDOT":0},{"OBJECT_NAME":"FENGYUN 1C DEB","OBJECT_ID":"1999-025EGV","EPOCH":"2026-02-28T16:17:34.017216","MEAN_MOTION":14.9983724,"ECCENTRICITY":0.01801634,"INCLINATION":98.631,"RA_OF_ASC_NODE":214.8944,"ARG_OF_PERICENTER":42.5154,"MEAN_ANOMALY":318.9857,"EPHEMERIS_TYPE":0,"CLASSIFICATION_TYPE":"U","NORAD_CAT_ID":37427,"ELEMENT_SET_NO":999,"REV_AT_EPOCH":61490,"BSTAR":0.00040638516,"MEAN_MOTION_DOT":7.014e-5,"MEAN_MOTION_DDOT":0}]
